TIANQI-15               
1 49027U 21065B   26068.81163741  .00006722  00000+0  41179-3 0  9990
2 49027  34.9979 108.2420 0007067 250.7766 109.2180 15.09508085254244
STARLINK-3105           
1 49440U 21104AJ  26068.62177450  .00001626  00000+0  12023-3 0  9998
2 49440  53.2173 209.4249 0001355  91.0565 269.0582 15.08840759238905
